
# Worst residual: 11.77 km
# MJD 57463.000000 (2016 Mar 16  0:00)
2010-050B = RV223A9 = Chang'e 2 booster
1 37175U 10050B   16076.49921083  .00000000  00000-0  00000-0 2  4644
2 37175 038.2441 209.1456 2116226 290.5921 194.3546 00.03506701    06

# Worst residual: 15.93 km
# MJD 57464.000000 (2016 Mar 17  0:00)
2010-050B = RV223A9 = Chang'e 2 booster
1 37175U 10050B   16077.49921083  .00000000  00000-0  00000-0 2  4645
2 37175 038.3729 208.8393 2099454 291.1527 206.4340 00.03501643    01

# Worst residual: 19.16 km
# MJD 57465.000000 (2016 Mar 18  0:00)
2010-050B = RV223A9 = Chang'e 2 booster
1 37175U 10050B   16078.49921083  .00000000  00000-0  00000-0 2  4646
2 37175 038.5302 208.5678 2080746 291.8510 218.2274 00.03498860    09

# Worst residual: 21.65 km
# MJD 57466.000000 (2016 Mar 19  0:00)
2010-050B = RV223A9 = Chang'e 2 booster
1 37175U 10050B   16079.49921083  .00000000  00000-0  00000-0 2  4647
2 37175 038.7036 208.3508 2061868 292.6891 229.7537 00.03500383    03

# Worst residual: 23.25 km
# MJD 57467.000000 (2016 Mar 20  0:00)
2010-050B = RV223A9 = Chang'e 2 booster
1 37175U 10050B   16080.49921083  .00000000  00000-0  00000-0 2  4649
2 37175 038.8795 208.1977 2044202 293.6977 241.0252 00.03508061    05

# Worst residual: 23.88 km
# MJD 57468.000000 (2016 Mar 21  0:00)
2010-050B = RV223A9 = Chang'e 2 booster
1 37175U 10050B   16081.49921083  .00000000  00000-0  00000-0 2  4640
2 37175 039.0436 208.1087 2028204 294.9122 252.0697 00.03523195    02

# Worst residual: 23.60 km
# MJD 57469.000000 (2016 Mar 22  0:00)
2010-050B = RV223A9 = Chang'e 2 booster
1 37175U 10050B   16082.49921083  .00000000  00000-0  00000-0 2  4641
2 37175 039.1832 208.0755 2013338 296.3516 262.9451 00.03546259    03

# Worst residual: 21.57 km
# MJD 57470.000000 (2016 Mar 23  0:00)
2010-050B = RV223A9 = Chang'e 2 booster
1 37175U 10050B   16083.49921083  .00000000  00000-0  00000-0 2  4642
2 37175 039.2911 208.0831 1998178 297.9860 273.7601 00.03576412    00

# Worst residual: 19.95 km
# MJD 57471.000000 (2016 Mar 24  0:00)
2010-050B = RV223A9 = Chang'e 2 booster
1 37175U 10050B   16084.49921083  .00000000  00000-0  00000-0 2  4643
2 37175 039.3565 208.1097 1981739 299.7681 284.6366 00.03612190    00

# Worst residual: 16.41 km
# MJD 57472.000000 (2016 Mar 25  0:00)
2010-050B = RV223A9 = Chang'e 2 booster
1 37175U 10050B   16085.49921083  .00000000  00000-0  00000-0 2  4644
2 37175 039.3868 208.1334 1962558 301.5031 295.8068 00.03649085    05

# Worst residual: 12.48 km
# MJD 57473.000000 (2016 Mar 26  0:00)
2010-050B = RV223A9 = Chang'e 2 booster
1 37175U 10050B   16086.49921083  .00000000  00000-0  00000-0 2  4645
2 37175 039.3898 208.1361 1942787 303.0925 307.3934 00.03683813    07

# Worst residual: 7.94 km
# MJD 57474.000000 (2016 Mar 27  0:00)
2010-050B = RV223A9 = Chang'e 2 booster
1 37175U 10050B   16087.49921083  .00000000  00000-0  00000-0 2  4646
2 37175 039.3777 208.1048 1926119 304.3043 319.5872 00.03709883    03

# Worst residual: 8.03 km
# MJD 57475.000000 (2016 Mar 28  0:00)
2010-050B = RV223A9 = Chang'e 2 booster
1 37175U 10050B   16088.49921083  .00000000  00000-0  00000-0 2  4647
2 37175 039.3665 208.0384 1916118 305.0723 332.3615 00.03724455    02

# Worst residual: 7.95 km
# MJD 57476.000000 (2016 Mar 29  0:00)
2010-050B = RV223A9 = Chang'e 2 booster
1 37175U 10050B   16089.49921083  .00000000  00000-0  00000-0 2  4648
2 37175 039.3700 207.9485 1917108 305.4507 345.5617 00.03726513    01

# Worst residual: 7.11 km
# MJD 57477.000000 (2016 Mar 30  0:00)
2010-050B = RV223A9 = Chang'e 2 booster
1 37175U 10050B   16090.49921083  .00000000  00000-0  00000-0 2  4640
2 37175 039.3956 207.8536 1925940 305.5949 358.9351 00.03720799    07

# Worst residual: 6.63 km
# MJD 57478.000000 (2016 Mar 31  0:00)
2010-050B = RV223A9 = Chang'e 2 booster
1 37175U 10050B   16091.49921083  .00000000  00000-0  00000-0 2  4641
2 37175 039.4452 207.7705 1934124 305.5657 012.3724 00.03715444    02

# Worst residual: 9.42 km
# MJD 57479.000000 (2016 Apr  1  0:00)
2010-050B = RV223A9 = Chang'e 2 booster
1 37175U 10050B   16092.49921083  .00000000  00000-0  00000-0 2  4642
2 37175 039.5159 207.7140 1933529 305.2453 026.0077 00.03718623    04

# Worst residual: 12.88 km
# MJD 57480.000000 (2016 Apr  2  0:00)
2010-050B = RV223A9 = Chang'e 2 booster
1 37175U 10050B   16093.49921083  .00000000  00000-0  00000-0 2  4643
2 37175 039.6044 207.6941 1923668 304.4462 040.0946 00.03734137    09

# Worst residual: 15.62 km
# MJD 57481.000000 (2016 Apr  3  0:00)
2010-050B = RV223A9 = Chang'e 2 booster
1 37175U 10050B   16094.49921083  .00000000  00000-0  00000-0 2  4644
2 37175 039.6975 207.7179 1910575 303.0456 054.8342 00.03761856    08

# Worst residual: 17.32 km
# MJD 57482.000000 (2016 Apr  4  0:00)
2010-050B = RV223A9 = Chang'e 2 booster
1 37175U 10050B   16095.49921083  .00000000  00000-0  00000-0 2  4645
2 37175 039.7825 207.7803 1902412 301.1257 070.2292 00.03798505    03

# Worst residual: 18.11 km
# MJD 57483.000000 (2016 Apr  5  0:00)
2010-050B = RV223A9 = Chang'e 2 booster
1 37175U 10050B   16096.49921083  .00000000  00000-0  00000-0 2  4646
2 37175 039.8448 207.8593 1905168 298.9371 086.0967 00.03839403    00

# Worst residual: 17.59 km
# MJD 57484.000000 (2016 Apr  6  0:00)
2010-050B = RV223A9 = Chang'e 2 booster
1 37175U 10050B   16097.49921083  .00000000  00000-0  00000-0 2  4647
2 37175 039.8812 207.9319 1919717 296.7781 102.1765 00.03880031    07

# Worst residual: 15.70 km
# MJD 57485.000000 (2016 Apr  7  0:00)
2010-050B = RV223A9 = Chang'e 2 booster
1 37175U 10050B   16098.49921083  .00000000  00000-0  00000-0 2  4648
2 37175 039.8937 207.9704 1942536 294.9184 118.2045 00.03916220    04

# Worst residual: 12.56 km
# MJD 57486.000000 (2016 Apr  8  0:00)
2010-050B = RV223A9 = Chang'e 2 booster
1 37175U 10050B   16099.49921083  .00000000  00000-0  00000-0 2  4649
2 37175 039.8920 207.9580 1967051 293.4997 134.0115 00.03944873    02

# Worst residual: 10.11 km
# MJD 57487.000000 (2016 Apr  9  0:00)
2010-050B = RV223A9 = Chang'e 2 booster
1 37175U 10050B   16100.49921083  .00000000  00000-0  00000-0 2  4642
2 37175 039.8891 207.8873 1987487 292.5803 149.4604 00.03963997    05
